{
    "links": {
        "self": "http://www.neowsapp.com/rest/v1/neo/3831460?api_key=iIulBulltgU6a56xZRHN4H3l9WmuAYTsLGpBGhQ2"
    },
    "id": "3831460",
    "neo_reference_id": "3831460",
    "name": "(2018 TS2)",
    "designation": "2018 TS2",
    "nasa_jpl_url": "http://ssd.jpl.nasa.gov/sbdb.cgi?sstr=3831460",
    "absolute_magnitude_h": 25.1,
    "estimated_diameter": {
        "kilometers": {
            "estimated_diameter_min": 0.0253837029,
            "estimated_diameter_max": 0.0567596853
        },
        "meters": {
            "estimated_diameter_min": 25.3837029364,
            "estimated_diameter_max": 56.7596852866
        },
        "miles": {
            "estimated_diameter_min": 0.0157726969,
            "estimated_diameter_max": 0.0352688224
        },
        "feet": {
            "estimated_diameter_min": 83.279867942,
            "estimated_diameter_max": 186.2194458756
        }
    },
    "is_potentially_hazardous_asteroid": false,
    "close_approach_data": [
        {
            "close_approach_date": "1964-03-22",
            "close_approach_date_full": "1964-Mar-22 09:03",
            "epoch_date_close_approach": -182357820000,
            "relative_velocity": {
                "kilometers_per_second": "12.834176148",
                "kilometers_per_hour": "46203.0341326628",
                "miles_per_hour": "28708.768625376"
            },
            "miss_distance": {
                "astronomical": "0.0344039624",
                "lunar": "13.3831413736",
                "kilometers": "5146759.494600088",
                "miles": "3198048.0544856944"
            },
            "orbiting_body": "Mars"
        },
        {
            "close_approach_date": "2018-10-29",
            "close_approach_date_full": "2018-Oct-29 10:25",
            "epoch_date_close_approach": 1540808700000,
            "relative_velocity": {
                "kilometers_per_second": "8.8684335234",
                "kilometers_per_hour": "31926.3606842124",
                "miles_per_hour": "19837.7989484763"
            },
            "miss_distance": {
                "astronomical": "0.0555677307",
                "lunar": "21.6158472423",
                "kilometers": "8312814.153453609",
                "miles": "5165343.1948094442"
            },
            "orbiting_body": "Earth"
        }
    ],
    "orbital_data": {
        "orbit_id": "9",
        "orbit_determination_date": "2018-10-21 07:09:22",
        "first_observation_date": "2018-10-05",
        "last_observation_date": "2018-10-21",
        "data_arc_in_days": 16,
        "observations_used": 42,
        "orbit_uncertainty": "7",
        "minimum_orbit_intersection": ".0168197",
        "jupiter_tisserand_invariant": "3.220",
        "epoch_osculation": "2459000.5",
        "eccentricity": ".5925722571044267",
        "semi_major_axis": "2.464448485975699",
        "inclination": "1.797645877750004",
        "ascending_node_longitude": "61.78418779974693",
        "orbital_period": "1413.116748489658",
        "perihelion_distance": "1.004084684123492",
        "perihelion_argument": "358.0430784824938",
        "aphelion_distance": "3.924812287827906",
        "perihelion_time": "2458438.889054117934",
        "mean_anomaly": "143.0737699016265",
        "mean_motion": ".2547560209620109",
        "equinox": "J2000",
        "orbit_class": {
            "orbit_class_type": "APO",
            "orbit_class_description": "Near-Earth asteroid orbits which cross the Earth’s orbit similar to that of 1862 Apollo",
            "orbit_class_range": "a (semi-major axis) > 1.0 AU; q (perihelion) < 1.017 AU"
        }
    },
    "is_sentry_object": false
}